start=new Date('2022-01-10T00:00:00.000Z').valueOf();
sats=[{"EPOCH":"2022-01-09T22:00:00.999936","ARG_OF_PERICENTER":"30.8747","OBJECT_TYPE":"PAYLOAD","APOAPSIS":"446.047","MEAN_ANOMALY":"8.0203","MEAN_MOTION_DOT":"-0.00027813","DECAY_DATE":null,"RCS_SIZE":"LARGE","PERIOD":"93.476","CENTER_NAME":"EARTH","OBJECT_ID":"2021-115AS","TLE_LINE2":"2 49764  53.2151 138.4086 0002113  30.8747   8.0203 15.40510072  7112","COUNTRY_CODE":"US","SEMIMAJOR_AXIS":"6822.740","REF_FRAME":"TEME","CLASSIFICATION_TYPE":"U","EPHEMERIS_TYPE":"0","MEAN_MOTION":"15.40510072","TLE_LINE1":"1 49764U 21115AS  22009.91667824 -.00027813  00000-0 -66784-3 0  9993","PERIAPSIS":"443.163","MEAN_ELEMENT_THEORY":"SGP4","SITE":"AFETR","INCLINATION":"53.2151","ECCENTRICITY":"0.00021130","GP_ID":"193535657","LAUNCH_DATE":"2021-12-02","REV_AT_EPOCH":"711","BSTAR":"-0.00066784000000","NORAD_CAT_ID":"49764","FILE":"3268267","ELEMENT_SET_NO":"999","TIME_SYSTEM":"UTC","OBJECT_NAME":"STARLINK-3206","MEAN_MOTION_DDOT":"0.0000000000000","RA_OF_ASC_NODE":"138.4086"},{"FILE":"3268267","TIME_SYSTEM":"UTC","ELEMENT_SET_NO":"999","OBJECT_NAME":"STARLINK-3227","MEAN_MOTION_DDOT":"0.0000000000000","RA_OF_ASC_NODE":"138.4040","REV_AT_EPOCH":"711","BSTAR":"0.00016931000000","NORAD_CAT_ID":"49765","MEAN_ELEMENT_THEORY":"SGP4","INCLINATION":"53.2156","SITE":"AFETR","ECCENTRICITY":"0.00020620","GP_ID":"193535853","LAUNCH_DATE":"2021-12-02","EPHEMERIS_TYPE":"0","MEAN_MOTION":"15.40481435","PERIAPSIS":"443.283","TLE_LINE1":"1 49765U 21115AT  22009.91667824  .00006570  00000-0  16931-3 0  9998","SEMIMAJOR_AXIS":"6822.824","REF_FRAME":"TEME","CLASSIFICATION_TYPE":"U","TLE_LINE2":"2 49765  53.2156 138.4040 0002062  28.9588  13.0368 15.40481435  7110","COUNTRY_CODE":"US","MEAN_MOTION_DOT":"0.00006570","DECAY_DATE":null,"PERIOD":"93.477","RCS_SIZE":"LARGE","CENTER_NAME":"EARTH","OBJECT_ID":"2021-115AT","EPOCH":"2022-01-09T22:00:00.999936","ARG_OF_PERICENTER":"28.9588","OBJECT_TYPE":"PAYLOAD","APOAPSIS":"446.096","MEAN_ANOMALY":"13.0368"},{"MEAN_MOTION_DDOT":"0.0000000000000","RA_OF_ASC_NODE":"138.4103","OBJECT_NAME":"STARLINK-3190","TIME_SYSTEM":"UTC","FILE":"3268323","ELEMENT_SET_NO":"999","NORAD_CAT_ID":"49766","BSTAR":"-0.00089646000000","REV_AT_EPOCH":"363","LAUNCH_DATE":"2021-12-02","GP_ID":"193559407","ECCENTRICITY":"0.00024170","SITE":"AFETR","INCLINATION":"53.2151","MEAN_ELEMENT_THEORY":"SGP4","PERIAPSIS":"442.957","TLE_LINE1":"1 49766U 21115AU  22009.91667824 -.00037152  00000-0 -89646-3 0  9994","MEAN_MOTION":"15.40509676","EPHEMERIS_TYPE":"0","CLASSIFICATION_TYPE":"U","REF_FRAME":"TEME","SEMIMAJOR_AXIS":"6822.741","COUNTRY_CODE":"US","TLE_LINE2":"2 49766  53.2151 138.4103 0002417  23.0894  14.7569 15.40509676  3638","OBJECT_ID":"2021-115AU","RCS_SIZE":"LARGE","CENTER_NAME":"EARTH","PERIOD":"93.476","MEAN_MOTION_DOT":"-0.00037152","DECAY_DATE":null,"MEAN_ANOMALY":"14.7569","APOAPSIS":"446.255","OBJECT_TYPE":"PAYLOAD","ARG_OF_PERICENTER":"23.0894","EPOCH":"2022-01-09T22:00:00.999936"},{"TLE_LINE2":"2 49767  53.2154 138.4079 0002151  30.5777   9.3256 15.40520325  3639","COUNTRY_CODE":"US","REF_FRAME":"TEME","SEMIMAJOR_AXIS":"6822.710","CLASSIFICATION_TYPE":"U","EPOCH":"2022-01-09T22:00:00.999936","ARG_OF_PERICENTER":"30.5777","APOAPSIS":"446.042","OBJECT_TYPE":"PAYLOAD","MEAN_ANOMALY":"9.3256","MEAN_MOTION_DOT":"-0.00031251","DECAY_DATE":null,"CENTER_NAME":"EARTH","RCS_SIZE":"LARGE","PERIOD":"93.475","OBJECT_ID":"2021-115AV","REV_AT_EPOCH":"363","NORAD_CAT_ID":"49767","BSTAR":"-0.00075168000000","TIME_SYSTEM":"UTC","FILE":"3268323","ELEMENT_SET_NO":"999","OBJECT_NAME":"STARLINK-3192","MEAN_MOTION_DDOT":"0.0000000000000","RA_OF_ASC_NODE":"138.4079","MEAN_MOTION":"15.40520325","EPHEMERIS_TYPE":"0","PERIAPSIS":"443.107","TLE_LINE1":"1 49767U 21115AV  22009.91667824 -.00031251  00000-0 -75168-3 0  9993","SITE":"AFETR","INCLINATION":"53.2154","MEAN_ELEMENT_THEORY":"SGP4","ECCENTRICITY":"0.00021510","GP_ID":"193559657","LAUNCH_DATE":"2021-12-02"},{"SEMIMAJOR_AXIS":"6822.731","REF_FRAME":"TEME","CLASSIFICATION_TYPE":"U","TLE_LINE2":"2 49768  53.2149 138.4137 0002577  22.6746  13.0572 15.40512936  7118","COUNTRY_CODE":"US","MEAN_MOTION_DOT":"-0.00031580","DECAY_DATE":null,"OBJECT_ID":"2021-115AW","RCS_SIZE":"LARGE","CENTER_NAME":"EARTH","PERIOD":"93.475","ARG_OF_PERICENTER":"22.6746","EPOCH":"2022-01-09T22:00:00.999936","MEAN_ANOMALY":"13.0572","OBJECT_TYPE":"PAYLOAD","APOAPSIS":"446.355","TIME_SYSTEM":"UTC","FILE":"3268267","ELEMENT_SET_NO":"999","MEAN_MOTION_DDOT":"0.0000000000000","RA_OF_ASC_NODE":"138.4137","OBJECT_NAME":"STARLINK-3196","REV_AT_EPOCH":"711","BSTAR":"-0.00075989000000","NORAD_CAT_ID":"49768","ECCENTRICITY":"0.00025770","MEAN_ELEMENT_THEORY":"SGP4","INCLINATION":"53.2149","SITE":"AFETR","LAUNCH_DATE":"2021-12-02","GP_ID":"193535652","TLE_LINE1":"1 49768U 21115AW  22009.91667824 -.00031580  00000-0 -75989-3 0  9990","PERIAPSIS":"442.838","EPHEMERIS_TYPE":"0","MEAN_MOTION":"15.40512936"},{"EPHEMERIS_TYPE":"0","MEAN_MOTION":"15.40508936","TLE_LINE1":"1 49769U 21115AX  22009.91667824 -.00023246  00000-0 -55621-3 0  9992","PERIAPSIS":"442.776","MEAN_ELEMENT_THEORY":"SGP4","SITE":"AFETR","INCLINATION":"53.2153","ECCENTRICITY":"0.00026850","GP_ID":"193535832","LAUNCH_DATE":"2021-12-02","REV_AT_EPOCH":"711","BSTAR":"-0.00055621000000","NORAD_CAT_ID":"49769","ELEMENT_SET_NO":"999","FILE":"3268265","TIME_SYSTEM":"UTC","OBJECT_NAME":"STARLINK-3208","MEAN_MOTION_DDOT":"0.0000000000000","RA_OF_ASC_NODE":"138.4135","EPOCH":"2022-01-09T22:00:00.999936","ARG_OF_PERICENTER":"25.9884","OBJECT_TYPE":"PAYLOAD","APOAPSIS":"446.440","MEAN_ANOMALY":"10.8165","MEAN_MOTION_DOT":"-0.00023246","DECAY_DATE":null,"RCS_SIZE":"LARGE","CENTER_NAME":"EARTH","PERIOD":"93.476","OBJECT_ID":"2021-115AX","TLE_LINE2":"2 49769  53.2153 138.4135 0002685  25.9884  10.8165 15.40508936  7119","COUNTRY_CODE":"US","SEMIMAJOR_AXIS":"6822.743","REF_FRAME":"TEME","CLASSIFICATION_TYPE":"U"},{"COUNTRY_CODE":"US","TLE_LINE2":"2 49770  53.2149 138.4158 0002637  22.6167  12.0620 15.40515045  7115","CLASSIFICATION_TYPE":"U","SEMIMAJOR_AXIS":"6822.725","REF_FRAME":"TEME","MEAN_ANOMALY":"12.0620","OBJECT_TYPE":"PAYLOAD","APOAPSIS":"446.389","ARG_OF_PERICENTER":"22.6167","EPOCH":"2022-01-09T22:00:00.999936","OBJECT_ID":"2021-115AY","RCS_SIZE":"LARGE","CENTER_NAME":"EARTH","PERIOD":"93.475","DECAY_DATE":null,"MEAN_MOTION_DOT":"-0.00032640","BSTAR":"-0.00078576000000","NORAD_CAT_ID":"49770","REV_AT_EPOCH":"711","MEAN_MOTION_DDOT":"0.0000000000000","RA_OF_ASC_NODE":"138.4158","OBJECT_NAME":"STARLINK-3191","FILE":"3268267","ELEMENT_SET_NO":"999","TIME_SYSTEM":"UTC","PERIAPSIS":"442.791","TLE_LINE1":"1 49770U 21115AY  22009.91667824 -.00032640  00000-0 -78576-3 0  9996","EPHEMERIS_TYPE":"0","MEAN_MOTION":"15.40515045","LAUNCH_DATE":"2021-12-02","GP_ID":"193535850","ECCENTRICITY":"0.00026370","MEAN_ELEMENT_THEORY":"SGP4","SITE":"AFETR","INCLINATION":"53.2149"},{"MEAN_ANOMALY":"7.8367","APOAPSIS":"446.111","OBJECT_TYPE":"PAYLOAD","ARG_OF_PERICENTER":"25.8101","EPOCH":"2022-01-09T22:00:00.999936","OBJECT_ID":"2021-115AZ","PERIOD":"93.476","RCS_SIZE":"LARGE","CENTER_NAME":"EARTH","MEAN_MOTION_DOT":"-0.00035185","DECAY_DATE":null,"COUNTRY_CODE":"US","TLE_LINE2":"2 49771  53.2153 138.4196 0002206  25.8101   7.8367 15.40509556  3631","CLASSIFICATION_TYPE":"U","REF_FRAME":"TEME","SEMIMAJOR_AXIS":"6822.741","PERIAPSIS":"443.101","TLE_LINE1":"1 49771U 21115AZ  22009.91667824 -.00035185  00000-0 -84829-3 0  9992","MEAN_MOTION":"15.40509556","EPHEMERIS_TYPE":"0","LAUNCH_DATE":"2021-12-02","GP_ID":"193560157","ECCENTRICITY":"0.00022060","SITE":"AFETR","INCLINATION":"53.2153","MEAN_ELEMENT_THEORY":"SGP4","NORAD_CAT_ID":"49771","BSTAR":"-0.00084829000000","REV_AT_EPOCH":"363","MEAN_MOTION_DDOT":"0.0000000000000","RA_OF_ASC_NODE":"138.4196","OBJECT_NAME":"STARLINK-3201","ELEMENT_SET_NO":"999","FILE":"3268323","TIME_SYSTEM":"UTC"},{"CLASSIFICATION_TYPE":"U","REF_FRAME":"TEME","SEMIMAJOR_AXIS":"6727.806","COUNTRY_CODE":"US","TLE_LINE2":"2 50156  53.2187 254.8086 0001339 101.8002 222.6489 15.73231282  3736","PERIOD":"91.531","RCS_SIZE":"LARGE","CENTER_NAME":"EARTH","OBJECT_ID":"2021-125A","MEAN_MOTION_DOT":"0.00003926","DECAY_DATE":null,"APOAPSIS":"350.572","OBJECT_TYPE":"PAYLOAD","MEAN_ANOMALY":"222.6489","EPOCH":"2022-01-09T22:00:00.999936","ARG_OF_PERICENTER":"101.8002","OBJECT_NAME":"STARLINK-3317","RA_OF_ASC_NODE":"254.8086","MEAN_MOTION_DDOT":"0.0000000000000","FILE":"3268323","TIME_SYSTEM":"UTC","ELEMENT_SET_NO":"999","NORAD_CAT_ID":"50156","BSTAR":"0.00003233800000","REV_AT_EPOCH":"373","GP_ID":"193560202","LAUNCH_DATE":"2021-12-18","INCLINATION":"53.2187","SITE":"AFWTR","MEAN_ELEMENT_THEORY":"SGP4","ECCENTRICITY":"0.00013390","MEAN_MOTION":"15.73231282","EPHEMERIS_TYPE":"0","PERIAPSIS":"348.770","TLE_LINE1":"1 50156U 21125A   22009.91667824  .00003926  00000-0  32338-4 0  9997"},{"REF_FRAME":"TEME","SEMIMAJOR_AXIS":"6727.690","CLASSIFICATION_TYPE":"U","TLE_LINE2":"2 50157  53.2189 254.8077 0001170  94.3713 231.0354 15.73272018  3734","COUNTRY_CODE":"US","MEAN_MOTION_DOT":"-0.00094199","DECAY_DATE":null,"OBJECT_ID":"2021-125B","PERIOD":"91.529","RCS_SIZE":"LARGE","CENTER_NAME":"EARTH","ARG_OF_PERICENTER":"94.3713","EPOCH":"2022-01-09T22:00:00.999936","MEAN_ANOMALY":"231.0354","APOAPSIS":"350.342","OBJECT_TYPE":"PAYLOAD","ELEMENT_SET_NO":"999","FILE":"3268323","TIME_SYSTEM":"UTC","RA_OF_ASC_NODE":"254.8077","MEAN_MOTION_DDOT":"0.0000000000000","OBJECT_NAME":"STARLINK-3313","REV_AT_EPOCH":"373","NORAD_CAT_ID":"50157","BSTAR":"-0.00067222000000","ECCENTRICITY":"0.00011700","INCLINATION":"53.2189","SITE":"AFWTR","MEAN_ELEMENT_THEORY":"SGP4","LAUNCH_DATE":"2021-12-18","GP_ID":"193560954","PERIAPSIS":"348.768","TLE_LINE1":"1 50157U 21125B   22009.91667824 -.00094199  00000-0 -67222-3 0  9991","MEAN_MOTION":"15.73272018","EPHEMERIS_TYPE":"0"}];
